1 16613U          87347.87219394 0.00024016  00000+0  11297-1 0  8306
2 16613  98.7145  59.3875 0000459  96.9117 263.1422 14.20023970  6319
1 16613U 86019A   87347.87245888  .00024016      0+0  11297-1 0 83007
2 16613  98.7145  59.3874 0000459  96.9116 263.1422 14.20023970  6317
1 16613U          87348.92912125 0.00000090  00000+0  46288-4 0  8313
2 16613  98.7150  60.4286 0000511 114.4416 245.6881 14.20026369  6466
1 16613U 86019A   87348.92912125  .00000090  00000-0  46288-4 0  8318
2 16613  98.7150  60.4286 0000511 114.4416 245.6881 14.20026369  6466
1 16613U 86019A   87349.91557283  .00000089  00000-0  46288-4 0  8327
2 16613  98.7177  61.4030 0000378 117.5679 242.5576 14.20027689  6608
1 16613U          87349.91557284 0.00000089  00000+0  46288-4 0  8323
2 16613  98.7177  61.4030 0000378 117.5679 242.5576 14.20027689  6608
1 16613U 86019A   87349.91583904  .00000089      0+0  46289-4 0 83206
2 16613  98.7177  61.4030 0000378 117.5678 242.5576 14.20027689  6607
1 16613U          87350.90202398 0.00000090  00000+0  46288-4 0  8330
2 16613  98.7157  62.3727 0000437 127.7251 232.4004 14.20027582  6745
1 16613U 86019A   87350.90202398  .00000090  00000-0  46288-4 0  8335
2 16613  98.7157  62.3727 0000437 127.7251 232.4004 14.20027582  6745
1 16613U 86019A   87350.90229019  .00000089      0+0  46289-4 0 83302
2 16613  98.7157  62.3727 0000437 127.7251 232.4004 14.20027582  6745
1 16613U          87351.95893612 0.00004986  00000+0  23514-2 0  8345
2 16613  98.7173  63.4149 0000646 112.1096 248.0139 14.20029712  6895
1 16613U 86019A   87351.95893612  .00004986  00000-0  23514-2 0  8340
2 16613  98.7173  63.4149 0000646 112.1096 248.0139 14.20029712  6895
1 16613U          87352.87492319 0.00004986  00000+0  23514-2 0  8357
2 16613  98.7161  64.3156 0000472 108.2463 251.8761 14.20038986  7023
1 16613U 86019A   87352.87492320  .00004986  00000-0  23514-2 0  8354
2 16613  98.7161  64.3156 0000472 108.2463 251.8761 14.20038986  7023
1 16613U          87353.86136404 0.00137010  00000+0  64392-1 0  8372
2 16613  98.7164  65.2866 0000341 102.6499 257.3893 14.20037361  7164
1 16613U 86019A   87353.86136404  .00137010  00000-0  64392-1 0  8377
2 16613  98.7164  65.2866 0000341 102.6499 257.3893 14.20037361  7164
1 16613U          87354.63638630 0.00009972  00000+0  46944-2 0  8386
2 16613  98.7155  66.0510 0000417 115.5795 244.2339 14.20035637  7271
1 16613U 86019A   87354.63638630  .00009972  00000-0  46944-2 0  8381
2 16613  98.7155  66.0510 0000417 115.5795 244.2339 14.20035637  7271
1 16613U          87354.84782778 0.00126577  00000+0  59487-1 0  8399
2 16613  98.7149  66.2589 0000465 119.1957 240.9075 14.20038844  7302
1 16613U 86019A   87354.84782778  .00126577  00000-0  59487-1 0  8394
2 16613  98.7149  66.2589 0000465 119.1957 240.9075 14.20038844  7302
1 16613U 86019A   87354.84809272  .00126576      0+0  59487-1 0 83901
2 16613  98.7149  66.2588 0000465 119.1956 240.9075 14.20038844  7300
1 16613U          87355.62284134 0.00013874  00000+0  65285-2 0  8411
2 16613  98.7154  67.0232 0000523 129.8740 229.9602 14.20037187  7419
1 16613U 86019A   87355.62284134  .00013874  00000-0  65285-2 0  8416
2 16613  98.7154  67.0232 0000523 129.8740 229.9602 14.20037187  7419
1 16613U          87355.83427845 0.00117909  00000+0  55422-1 0  8428
2 16613  98.7161  67.2300 0000560 147.1371 212.9667 14.20030815  7446
1 16613U 86019A   87355.83427845  .00117909  00000-0  55422-1 0  8423
2 16613  98.7161  67.2300 0000560 147.1371 212.9667 14.20030815  7446
1 16613U          87356.60929970 0.00022858  00000+0  10749-1 0  8432
2 16613  98.7147  67.9935 0000502 116.5520 243.3204 14.20040878  7550
1 16613U 86019A   87356.60929970  .00022858  00000-0  10749-1 0  8437
2 16613  98.7147  67.9935 0000502 116.5520 243.3204 14.20040878  7550
1 16613U          87356.96164775 0.00022858  00000+0  10749-1 0  8446
2 16613  98.7153  68.3390 0000694 126.2067 233.8850 14.20038371  7605
1 16613U 86019A   87356.96164775  .00022858  00000-0  10749-1 0  8441
2 16613  98.7153  68.3390 0000694 126.2067 233.8850 14.20038371  7605
1 16613U 86019A   87356.96191269  .00022857      0+0  10749-1 0 84407
2 16613  98.7153  68.3389 0000694 126.2067 233.8850 14.20038371  7603
1 16613U          87357.59579060 0.00022855  00000+0  10749-1 0  8451
2 16613  98.7153  68.9638 0000681 128.3721 231.7075 14.20035000  7693
1 16613U 86019A   87357.59579060  .00022855  00000-0  10749-1 0  8456
2 16613  98.7153  68.9638 0000681 128.3721 231.7075 14.20035000  7693
1 16613U          87357.80718003 0.00022839  00000+0  10749-1 0  8460
2 16613  98.7138  69.1698 0000438 105.8670 254.2343 14.19996498  7725
1 16613U 86019A   87357.80718004  .00022839  00000-0  10749-1 0  8466
2 16613  98.7138  69.1698 0000438 105.8670 254.2343 14.19996498  7725
1 16613U          87357.87764650 0.00022858  00000+0  10749-1 0  8478
2 16613  98.7159  69.2421 0000656 112.6284 247.5056 14.20039479  7738
1 16613U 86019A   87357.87764651  .00022858  00000-0  10749-1 0  8474
2 16613  98.7159  69.2421 0000656 112.6284 247.5056 14.20039479  7738
1 16613U          87358.86407286 0.00022851  00000+0  10749-1 0  8481
2 16613  98.7138  70.2130 0000645 137.0033 223.0040 14.20025443  7878
1 16613U 86019A   87358.86407286  .00022851  00000-0  10749-1 0  8486
2 16613  98.7138  70.2130 0000645 137.0033 223.0040 14.20025443  7878
1 16613U 86019A   87358.86433780  .00022851      0+0  10749-1 0 84803
2 16613  98.7138  70.2130 0000645 137.0033 223.0040 14.20025443  7878
1 16613U          87359.92099207 0.00001765  00000+0  83756-3 0  8491
2 16613  98.7134  71.2545 0000660 114.2901 245.7567 14.20028920  8029
1 16613U 86019A   87359.92099207  .00001765  00000-0  83756-3 0  8496
2 16613  98.7134  71.2545 0000660 114.2901 245.7567 14.20028920  8029
1 16613U          87360.90745729 0.00000108  00000+0  55005-4 0  8507
2 16613  98.7135  72.2260 0000588 130.5470 229.5777 14.20029441  8163
1 16613U 86019A   87360.90745729  .00000108  00000-0  55005-4 0  8502
2 16613  98.7135  72.2260 0000588 130.5470 229.5777 14.20029441  8163
1 16613U          87362.03482925 0.00006915  00000+0  32578-2 0  8510
2 16613  98.7141  73.3353 0000615  38.8040 321.3163 14.20036494  8323
1 16613U 86019A   87362.03482925  .00006915  00000-0  32578-2 0  8515
2 16613  98.7141  73.3353 0000615  38.8040 321.3163 14.20036494  8323
1 16613U 86019A   87362.03509546  .00006915      0+0  32578-2 0 85103
2 16613  98.7141  73.3353 0000615  38.8039 321.3163 14.20036494  8321
1 16613U          87362.88035115 0.00006913  00000+0  32578-2 0  8527
2 16613  98.7101  74.1738 0000494  89.2071 270.8786 14.20021219  8445
1 16613U 86019A   87362.88035115  .00006913  00000-0  32578-2 0  8522
2 16613  98.7101  74.1738 0000494  89.2071 270.8786 14.20021219  8445
1 16613U          87363.86681037 0.00006915  00000+0  32578-2 0  8539
2 16613  98.7148  75.1384 0000822 113.5237 246.6105 14.20034113  8582
1 16613U 86019A   87363.86681037  .00006915  00000-0  32578-2 0  8534
2 16613  98.7148  75.1384 0000822 113.5237 246.6105 14.20034113  8582
1 16613U          87364.85325169 0.00006914  00000+0  32578-2 0  8540
2 16613  98.7136  76.1119 0000916 146.4665 213.6244 14.20020621  8723
1 16613U 86019A   87364.85325169  .00006914  00000-0  32578-2 0  8545
2 16613  98.7136  76.1119 0000916 146.4665 213.6244 14.20020621  8723
1 16613U          87365.83971036 0.00006915  00000+0  32578-2 0  8551
2 16613  98.7127  77.0835 0000861 138.8039 221.3348 14.20033009  8867
1 16613U 86019A   87365.83971036  .00006915  00000-0  32578-2 0  8556
2 16613  98.7127  77.0835 0000861 138.8039 221.3348 14.20033009  8867
1 16613U          88001.82613184 0.00006913  00000+0  32578-2 0  8564
2 16613  98.7142  78.0545 0000801 140.7340 219.3159 14.20018793  9001
1 16613U 86019A   88001.82613184  .00006913  00000-0  32578-2 0  8569
2 16613  98.7142  78.0545 0000801 140.7340 219.3159 14.20018793  9001
1 16613U          88002.81259600 0.00000041  00000+0  23411-4 0  8578
2 16613  98.7139  79.0259 0000925 147.8522 212.2808 14.20031164  9142
1 16613U 86019A   88002.81259600  .00000041  00000-0  23411-4 0  8573
2 16613  98.7139  79.0259 0000925 147.8522 212.2808 14.20031164  9142
1 16613U          88003.86950449 0.00000041  00000+0  23409-4 0  8581
2 16613  98.7134  80.0667 0000954 140.7387 219.3821 14.20030340  9299
1 16613U 86019A   88003.86950449  .00000041  00000-0  23409-4 0  8586
2 16613  98.7134  80.0667 0000954 140.7387 219.3821 14.20030340  9299
1 16613U          88003.93996597 0.00000041  00000+0  23409-4 0  8594
2 16613  98.7130  80.1363 0000831 134.5827 225.5393 14.20038118  9309
1 16613U 86019A   88003.93996597  .00000041  00000-0  23409-4 0  8599
2 16613  98.7130  80.1363 0000831 134.5827 225.5393 14.20038118  9309
1 16613U          88004.85595095 0.00000041  00000+0  23409-4 0  8606
2 16613  98.7131  81.0382 0001003 143.0360 217.0671 14.20029477  9437
1 16613U 86019A   88004.85595095  .00000041  00000-0  23409-4 0  8601
2 16613  98.7131  81.0382 0001003 143.0360 217.0671 14.20029477  9437
1 16613U          88005.77194523 0.00000041  00000+0  23409-4 0  8610
2 16613  98.7129  81.9397 0000830 133.8194 226.3101 14.20017811  9562
1 16613U 86019A   88005.77194523  .00000041  00000-0  23409-4 0  8615
2 16613  98.7129  81.9397 0000830 133.8194 226.3101 14.20017811  9562
1 16613U          88006.05378966 0.00000041  00000+0  23409-4 0  8628
2 16613  98.7130  82.2141 0001317 139.7272 220.4245 14.20050695  9604
1 16613U 86019A   88006.05378967  .00000041  00000-0  23409-4 0  8624
2 16613  98.7130  82.2141 0001317 139.7272 220.4245 14.20050695  9604
1 16613U          88006.82884191 0.00000041  00000+0  23409-4 0  8636
2 16613  98.7133  82.9811 0000901 140.8324 219.2301 14.20017850  9714
1 16613U 86019A   88006.82884191  .00000041  00000-0  23409-4 0  8631
2 16613  98.7133  82.9811 0000901 140.8324 219.2301 14.20017850  9714
1 16613U          88007.88577426 0.00000041  00000+0  23409-4 0  8644
2 16613  98.7126  84.0213 0000881 129.0882 231.0895 14.20030487  9867
